[
    {
        "Altitude(m)": 567349.6164675473,
        "Argument of Periapsis(deg)": 0.013245982221427002,
        "Eccentricity": 0.0,
        "Inclination(deg)": 53.0,
        "Latitude(deg)": -41.989633004982714,
        "Longitude(deg)": -84.15766526739196,
        "Mean Anomaly(deg)": -123.4531142648448,
        "RAAN(deg)": 154.98028673705605,
        "Satellite Name": "Starlink Shell 1 695",
        "Satellite Number": 695,
        "Semi-Major Axis(m)": 6931778.249405717,
        "Time(s)": 380
    },
    {
        "Altitude(m)": 567501.2987226303,
        "Argument of Periapsis(deg)": 0.013594560700938237,
        "Eccentricity": 0.0,
        "Inclination(deg)": 53.0,
        "Latitude(deg)": -42.35696922557111,
        "Longitude(deg)": -83.51727892364794,
        "Mean Anomaly(deg)": -122.8262830612881,
        "RAAN(deg)": 154.97976796697856,
        "Satellite Name": "Starlink Shell 1 695",
        "Satellite Number": 695,
        "Semi-Major Axis(m)": 6931778.249405717,
        "Time(s)": 390
    },
    {
        "Altitude(m)": 567651.2202572214,
        "Argument of Periapsis(deg)": 0.013943139180449475,
        "Eccentricity": 0.0,
        "Inclination(deg)": 53.0,
        "Latitude(deg)": -42.7201752044289,
        "Longitude(deg)": -82.86897313236173,
        "Mean Anomaly(deg)": -122.19945185773142,
        "RAAN(deg)": 154.9792491969011,
        "Satellite Name": "Starlink Shell 1 695",
        "Satellite Number": 695,
        "Semi-Major Axis(m)": 6931778.249405717,
        "Time(s)": 400
    },
    {
        "Altitude(m)": 567799.322297169,
        "Argument of Periapsis(deg)": 0.014291717659960712,
        "Eccentricity": 0.0,
        "Inclination(deg)": 53.0,
        "Latitude(deg)": -43.07915143729671,
        "Longitude(deg)": -82.21264510539575,
        "Mean Anomaly(deg)": -121.57262065417466,
        "RAAN(deg)": 154.9787304268236,
        "Satellite Name": "Starlink Shell 1 695",
        "Satellite Number": 695,
        "Semi-Major Axis(m)": 6931778.249405717,
        "Time(s)": 410
    },
    {
        "Altitude(m)": 567945.5467318981,
        "Argument of Periapsis(deg)": 0.014640296139471948,
        "Eccentricity": 0.0,
        "Inclination(deg)": 53.0,
        "Latitude(deg)": -43.433796617510296,
        "Longitude(deg)": -81.54819582919481,
        "Mean Anomaly(deg)": -120.94578945061791,
        "RAAN(deg)": 154.97821165674617,
        "Satellite Name": "Starlink Shell 1 695",
        "Satellite Number": 695,
        "Semi-Major Axis(m)": 6931778.249405717,
        "Time(s)": 420
    },
    {
        "Altitude(m)": 568089.8361400376,
        "Argument of Periapsis(deg)": 0.014988874618983185,
        "Eccentricity": 0.0,
        "Inclination(deg)": 53.0,
        "Latitude(deg)": -43.78400765625929,
        "Longitude(deg)": -80.87552993102453,
        "Mean Anomaly(deg)": -120.31895824706123,
        "RAAN(deg)": 154.97769288666865,
        "Satellite Name": "Starlink Shell 1 695",
        "Satellite Number": 695,
        "Semi-Major Axis(m)": 6931778.249405717,
        "Time(s)": 430
    },
    {
        "Altitude(m)": 568232.1338147531,
        "Argument of Periapsis(deg)": 0.015337453098494424,
        "Eccentricity": 0.0,
        "Inclination(deg)": 53.0,
        "Latitude(deg)": -44.12967970866266,
        "Longitude(deg)": -80.19455556347992,
        "Mean Anomaly(deg)": -119.69212704350456,
        "RAAN(deg)": 154.97717411659121,
        "Satellite Name": "Starlink Shell 1 695",
        "Satellite Number": 695,
        "Semi-Major Axis(m)": 6931778.249405717,
        "Time(s)": 440
    },
    {
        "Altitude(m)": 568372.3837887107,
        "Argument of Periapsis(deg)": 0.01568603157800566,
        "Eccentricity": 0.0,
        "Inclination(deg)": 53.0,
        "Latitude(deg)": -44.47070620606452,
        "Longitude(deg)": -79.50518582000997,
        "Mean Anomaly(deg)": -119.06529583994784,
        "RAAN(deg)": 154.97665534651372,
        "Satellite Name": "Starlink Shell 1 695",
        "Satellite Number": 695,
        "Semi-Major Axis(m)": 6931778.249405717,
        "Time(s)": 450
    },
    {
        "Altitude(m)": 568510.5308587396,
        "Argument of Periapsis(deg)": 0.0160346100575169,
        "Eccentricity": 0.0,
        "Inclination(deg)": 53.0,
        "Latitude(deg)": -44.80697889496239,
        "Longitude(deg)": -78.80733865543581,
        "Mean Anomaly(deg)": -118.43846463639107,
        "RAAN(deg)": 154.97613657643626,
        "Satellite Name": "Starlink Shell 1 695",
        "Satellite Number": 695,
        "Semi-Major Axis(m)": 6931778.249405717,
        "Time(s)": 460
    },
    {
        "Altitude(m)": 568646.5206101218,
        "Argument of Periapsis(deg)": 0.016383188537028134,
        "Eccentricity": 0.0,
        "Inclination(deg)": 53.0,
        "Latitude(deg)": -45.13838788298239,
        "Longitude(deg)": -78.10093682391775,
        "Mean Anomaly(deg)": -117.81163343283434,
        "RAAN(deg)": 154.97561780635877,
        "Satellite Name": "Starlink Shell 1 695",
        "Satellite Number": 695,
        "Semi-Major Axis(m)": 6931778.249405717,
        "Time(s)": 470
    },
    {
        "Altitude(m)": 568780.2994405193,
        "Argument of Periapsis(deg)": 0.01673176701653937,
        "Eccentricity": 0.0,
        "Inclination(deg)": 53.0,
        "Latitude(deg)": -45.464821692319134,
        "Longitude(deg)": -77.3859093466572,
        "Mean Anomaly(deg)": -117.18480222927766,
        "RAAN(deg)": 154.9750990362813,
        "Satellite Name": "Starlink Shell 1 695",
        "Satellite Number": 695,
        "Semi-Major Axis(m)": 6931778.249405717,
        "Time(s)": 480
    },
    {
        "Altitude(m)": 568911.8145835415,
        "Argument of Periapsis(deg)": 0.017080345496050607,
        "Eccentricity": 0.0,
        "Inclination(deg)": 53.0,
        "Latitude(deg)": -45.78616732105501,
        "Longitude(deg)": -76.66219148280412,
        "Mean Anomaly(deg)": -116.55797102572099,
        "RAAN(deg)": 154.97458026620382,
        "Satellite Name": "Starlink Shell 1 695",
        "Satellite Number": 695,
        "Semi-Major Axis(m)": 6931778.249405717,
        "Time(s)": 490
    },
    {
        "Altitude(m)": 569041.0141318981,
        "Argument of Periapsis(deg)": 0.017428923975561842,
        "Eccentricity": 0.0,
        "Inclination(deg)": 53.0,
        "Latitude(deg)": -46.10231031276841,
        "Longitude(deg)": -75.92972471547242,
        "Mean Anomaly(deg)": -115.93113982216424,
        "RAAN(deg)": 154.97406149612638,
        "Satellite Name": "Starlink Shell 1 695",
        "Satellite Number": 695,
        "Semi-Major Axis(m)": 6931778.249405717,
        "Time(s)": 500
    },
    {
        "Altitude(m)": 569167.8470602209,
        "Argument of Periapsis(deg)": 0.01777750245507308,
        "Eccentricity": 0.0,
        "Inclination(deg)": 53.0,
        "Latitude(deg)": -46.41313483483288,
        "Longitude(deg)": -75.18845826454537,
        "Mean Anomaly(deg)": -115.3043086186075,
        "RAAN(deg)": 154.9735427260489,
        "Satellite Name": "Starlink Shell 1 695",
        "Satellite Number": 695,
        "Semi-Major Axis(m)": 6931778.249405717,
        "Time(s)": 510
    },
    {
        "Altitude(m)": 569292.2632474179,
        "Argument of Periapsis(deg)": 0.018126080934584315,
        "Eccentricity": 0.0,
        "Inclination(deg)": 53.0,
        "Latitude(deg)": -46.718523765792355,
        "Longitude(deg)": -74.43834909909725,
        "Mean Anomaly(deg)": -114.6774774150508,
        "RAAN(deg)": 154.9730239559714,
        "Satellite Name": "Starlink Shell 1 695",
        "Satellite Number": 695,
        "Semi-Major Axis(m)": 6931778.249405717,
        "Time(s)": 520
    },
    {
        "Altitude(m)": 569414.2134986637,
        "Argument of Periapsis(deg)": 0.018474659414095554,
        "Eccentricity": 0.0,
        "Inclination(deg)": 53.0,
        "Latitude(deg)": -47.01835879218175,
        "Longitude(deg)": -73.67936196063724,
        "Mean Anomaly(deg)": -114.0506462114941,
        "RAAN(deg)": 154.97250518589394,
        "Satellite Name": "Starlink Shell 1 695",
        "Satellite Number": 695,
        "Semi-Major Axis(m)": 6931778.249405717,
        "Time(s)": 530
    },
    {
        "Altitude(m)": 569533.6495669482,
        "Argument of Periapsis(deg)": 0.018823237893606792,
        "Eccentricity": 0.0,
        "Inclination(deg)": 53.0,
        "Latitude(deg)": -47.31252051513628,
        "Longitude(deg)": -72.91147090812795,
        "Mean Anomaly(deg)": -113.4238150079374,
        "RAAN(deg)": 154.97198641581647,
        "Satellite Name": "Starlink Shell 1 695",
        "Satellite Number": 695,
        "Semi-Major Axis(m)": 6931778.249405717,
        "Time(s)": 540
    },
    {
        "Altitude(m)": 569650.5241741999,
        "Argument of Periapsis(deg)": 0.019171816373118027,
        "Eccentricity": 0.0,
        "Inclination(deg)": 53.0,
        "Latitude(deg)": -47.60088856710421,
        "Longitude(deg)": -72.13465935682736,
        "Mean Anomaly(deg)": -112.79698380438064,
        "RAAN(deg)": 154.97146764573898,
        "Satellite Name": "Starlink Shell 1 695",
        "Satellite Number": 695,
        "Semi-Major Axis(m)": 6931778.249405717,
        "Time(s)": 550
    },
    {
        "Altitude(m)": 569764.791031989,
        "Argument of Periapsis(deg)": 0.019520394852629266,
        "Eccentricity": 0.0,
        "Inclination(deg)": 53.0,
        "Latitude(deg)": -47.88334173894021,
        "Longitude(deg)": -71.34892012135916,
        "Mean Anomaly(deg)": -112.17015260082397,
        "RAAN(deg)": 154.97094887566152,
        "Satellite Name": "Starlink Shell 1 695",
        "Satellite Number": 695,
        "Semi-Major Axis(m)": 6931778.249405717,
        "Time(s)": 560
    }
]